GPS BIIR-2  (PRN 13)    
1 24876U 97035A   22070.14209289 -.00000029  00000+0  00000+0 0  9997
2 24876  55.4961 159.5089 0056272  52.9016 307.6399  2.00563591180682
GPS BIIR-4  (PRN 20)    
1 26360U 00025A   22070.75822218 -.00000004  00000+0  00000+0 0  9993
2 26360  53.9803  82.9017 0050812 183.0393 347.3646  2.00552717160017
GPS BIIR-6  (PRN 22)    
1 26605U 00071A   22070.47975126 -.00000029  00000+0  00000+0 0  9999
2 26605  55.0781 156.5306 0132691 253.3053 209.3258  2.00564503156259
GPS BIIR-8  (PRN 16)    
1 27663U 03005A   22070.55069480  .00000037  00000+0  00000+0 0  9998
2 27663  55.5798 276.9463 0126290  40.2045 322.6561  2.00570464140050
GPS BIIR-9  (PRN 21)    
1 27704U 03010A   22070.57957747 -.00000079  00000+0  00000+0 0  9991
2 27704  54.9888  27.2694 0247249 302.9934 300.0290  2.00575783138847
GPS BIIR-11 (PRN 19)    
1 28190U 04009A   22070.64742823 -.00000086  00000+0  00000+0 0  9993
2 28190  56.0587 337.9002 0088306 116.1978 114.7821  2.00562379131682
GPS BIIR-13 (PRN 02)    
1 28474U 04045A   22070.09513341 -.00000079  00000+0  00000+0 0  9990
2 28474  55.3175  27.3912 0208294 277.6823 182.3376  2.00560159127162
GPS BIIRM-1 (PRN 17)    
1 28874U 05038A   22070.58250833 -.00000082  00000+0  00000+0 0  9999
2 28874  56.1289 335.3325 0137940 274.3351 289.8768  2.00552716120576
GPS BIIRM-2 (PRN 31)    
1 29486U 06042A   22070.47345876  .00000022  00000+0  00000+0 0  9998
2 29486  54.7291 213.1683 0103710  20.7014  24.1214  2.00560164113136
GPS BIIRM-3 (PRN 12)    
1 29601U 06052A   22069.85938787  .00000034  00000+0  00000+0 0  9990
2 29601  55.5841 275.9077 0084984  71.5661 289.3871  2.00573742112130
GPS BIIRM-4 (PRN 15)    
1 32260U 07047A   22070.66727632 -.00000027  00000+0  00000+0 0  9999
2 32260  53.2863 144.5957 0137418  61.4183 300.0070  2.00554101105558
GPS BIIRM-5 (PRN 29)    
1 32384U 07062A   22070.37680247 -.00000085  00000+0  00000+0 0  9995
2 32384  56.2450 336.0892 0017325 132.9603 148.0059  2.00556410104248
GPS BIIRM-6 (PRN 07)    
1 32711U 08012A   22070.08640930  .00000023  00000+0  00000+0 0  9999
2 32711  54.4873 212.1420 0158602 229.5313 129.0458  2.00561966102485
GPS BIIRM-8 (PRN 05)    
1 35752U 09043A   22070.80435677  .00000002  00000+0  00000+0 0  9999
2 35752  54.9973  89.4585 0056753  56.3864 120.2830  2.00562852 92106
GPS BIIF-1  (PRN 25)    
1 36585U 10022A   22070.10243039  .00000040  00000+0  00000+0 0  9997
2 36585  54.8650 271.4853 0103516  55.9465  89.6168  2.00560399 86328
GPS BIIF-2  (PRN 01)    
1 37753U 11036A   22070.65328427 -.00000068  00000+0  00000+0 0  9997
2 37753  56.5633  32.5118 0113620  49.9037 218.2377  2.00564891 78011
GPS BIIF-3  (PRN 24)    
1 38833U 12053A   22070.26578646  .00000014  00000+0  00000+0 0  9994
2 38833  53.5404 207.3714 0122199  45.7255 315.2383  2.00560695 68174
GPS BIIF-4  (PRN 27)    
1 39166U 13023A   22070.12565163 -.00000080  00000+0  00000+0 0  9991
2 39166  55.7604 331.7616 0102174  36.2388 324.4865  2.00566642 64616
GPS BIIF-5  (PRN 30)    
1 39533U 14008A   22070.11933858  .00000022  00000+0  00000+0 0  9997
2 39533  53.6370 212.8728 0057092 205.5908 154.0948  2.00575293 58413
GPS BIIF-6  (PRN 06)    
1 39741U 14026A   22070.40161360 -.00000069  00000+0  00000+0 0  9993
2 39741  56.5268  32.0476 0028813 304.2100  55.5110  2.00563048 57278
GPS BIIF-7  (PRN 09)    
1 40105U 14045A   22070.49289372 -.00000028  00000+0  00000+0 0  9998
2 40105  54.6691 150.7155 0019680 109.6214 250.6327  2.00571176 54816
GPS BIIF-8  (PRN 03)    
1 40294U 14068A   22070.36783395  .00000001  00000+0  00000+0 0  9992
2 40294  55.7415  91.8092 0037441  52.1400 308.2530  2.00564800 53945
GPS BIIF-9  (PRN 26)    
1 40534U 15013A   22070.50008986  .00000042  00000+0  00000+0 0  9997
2 40534  53.7672 268.7506 0068349  19.9924 340.2959  2.00558640 50564
GPS BIIF-10 (PRN 08)    
1 40730U 15033A   22069.66619972 -.00000082  00000+0  00000+0 0  9990
2 40730  55.2616 330.6557 0073386   5.3326 354.7838  2.00557257 48717
GPS BIIF-11 (PRN 10)    
1 41019U 15062A   22070.21338081 -.00000001  00000+0  00000+0 0  9996
2 41019  55.7312  91.6560 0076807 217.9278 141.5818  2.00563145 46566
GPS BIIF-12 (PRN 32)    
1 41328U 16007A   22070.31017705 -.00000029  00000+0  00000+0 0  9997
2 41328  54.8894 151.3708 0059043 228.3431 131.1907  2.00574880 44573
GPS BIII-1  (PRN 04)    
1 43873U 18109A   22070.60299333 -.00000028  00000+0  00000+0 0  9999
2 43873  55.0701 153.7568 0017758 194.1229 274.1870  2.00566960 23813
GPS BIII-2  (PRN 18)    
1 44506U 19056A   22070.44387870 -.00000069  00000+0  00000+0 0  9996
2 44506  55.6348  32.9472 0021242 183.5116  72.9796  2.00570905 18800
GPS BIII-3  (PRN 23)    
1 45854U 20041A   22071.17875632  .00000008  00000+0  00000+0 0  9990
2 45854  55.4489  90.1864 0019775 177.7572 187.9006  2.00560271 12788
GPS BIII-4  (PRN 14)    
1 46826U 20078A   22070.71224775  .00000039  00000+0  00000+0 0  9999
2 46826  54.6329 274.0587 0015387 181.5197 179.9690  2.00566296 10251
GPS BIII-5 (PRN 11)     
1 48859U 21054A   22070.65735428 -.00000067  00000+0  00000+0 0  9999
2 48859  55.1382  34.9865 0002908 208.9320 296.4512  2.00551427  5491
